CCSDS_OMM_VERS = 2.0
CREATION_DATE  = 
ORIGINATOR     = 

OBJECT_NAME    = XRISM
OBJECT_ID      = 2023-137A
CENTER_NAME    = EARTH
REF_FRAME      = TEME
TIME_SYSTEM    = UTC
MEAN_ELEMENT_THEORY = SGP/SGP4

EPOCH          = 2026-03-17T19:53:41.829504
MEAN_MOTION    = 15.11590805
ECCENTRICITY   = .0007911
INCLINATION    = 31.0008
RA_OF_ASC_NODE = 231.0124
ARG_OF_PERICENTER = 120.9592
MEAN_ANOMALY   = 239.1824

EPHEMERIS_TYPE = 0
CLASSIFICATION_TYPE = U
NORAD_CAT_ID   = 57800
ELEMENT_SET_NO = 999
REV_AT_EPOCH   = 13902
BSTAR          = .22845994E-3
MEAN_MOTION_DOT = .4074E-4
MEAN_MOTION_DDOT = 0

CCSDS_OMM_VERS = 2.0
CREATION_DATE  = 
ORIGINATOR     = 

OBJECT_NAME    = ACS3
OBJECT_ID      = 2024-077B
CENTER_NAME    = EARTH
REF_FRAME      = TEME
TIME_SYSTEM    = UTC
MEAN_ELEMENT_THEORY = SGP/SGP4

EPOCH          = 2026-03-17T20:22:58.028736
MEAN_MOTION    = 13.89976735
ECCENTRICITY   = .00669491
INCLINATION    = 97.2024
RA_OF_ASC_NODE = 16.1276
ARG_OF_PERICENTER = 57.3445
MEAN_ANOMALY   = 303.4155

EPHEMERIS_TYPE = 0
CLASSIFICATION_TYPE = U
NORAD_CAT_ID   = 59588
ELEMENT_SET_NO = 999
REV_AT_EPOCH   = 9533
BSTAR          = .15619414E-1
MEAN_MOTION_DOT = .19616E-3
MEAN_MOTION_DDOT = 0

CCSDS_OMM_VERS = 2.0
CREATION_DATE  = 
ORIGINATOR     = 

OBJECT_NAME    = SZ-21 MODULE
OBJECT_ID      = 2025-246C
CENTER_NAME    = EARTH
REF_FRAME      = TEME
TIME_SYSTEM    = UTC
MEAN_ELEMENT_THEORY = SGP/SGP4

EPOCH          = 2026-03-17T14:02:08.684736
MEAN_MOTION    = 15.69175030
ECCENTRICITY   = .00005925
INCLINATION    = 41.4741
RA_OF_ASC_NODE = 154.7368
ARG_OF_PERICENTER = 302.6268
MEAN_ANOMALY   = 57.4517

EPHEMERIS_TYPE = 0
CLASSIFICATION_TYPE = U
NORAD_CAT_ID   = 66515
ELEMENT_SET_NO = 999
REV_AT_EPOCH   = 1931
BSTAR          = .24560925E-3
MEAN_MOTION_DOT = .29162E-3
MEAN_MOTION_DDOT = 0

